OBJECT_NAME,OBJECT_ID,EPOCH,MEAN_MOTION,ECCENTRICITY,INCLINATION,RA_OF_ASC_NODE,ARG_OF_PERICENTER,MEAN_ANOMALY,EPHEMERIS_TYPE,CLASSIFICATION_TYPE,NORAD_CAT_ID,ELEMENT_SET_NO,REV_AT_EPOCH,BSTAR,MEAN_MOTION_DOT,MEAN_MOTION_DDOT
EUTELSAT 53A,2014-064A,2026-06-11T22:03:05.528736,1.00271410,.0000899,0.0153,304.4688,246.8476,92.7252,0,U,40277,999,4151,0,.114E-5,0
GSAT-16,2014-078A,2026-06-11T22:03:42.969312,1.00272796,.00075901,0.0756,91.5760,354.5833,200.1116,0,U,40332,999,4205,0,.101E-5,0
DIRECTV 14,2014-078B,2026-06-11T21:19:40.634400,1.00271223,.00003818,0.0104,344.5357,323.3247,173.0530,0,U,40333,999,4199,0,-.109E-5,0
YAMAL 401,2014-082A,2026-06-11T08:32:26.006784,1.00269130,.0000623,0.0165,302.1572,218.8270,316.7771,0,U,40345,999,4186,0,0,0
ASTRA 2G,2014-089A,2026-06-11T22:50:56.886720,1.00272290,.00047205,0.0547,23.8245,38.0527,209.3388,0,U,40364,999,4191,0,.166E-5,0
FENGYUN 2G,2014-090A,2026-06-11T22:41:57.926976,1.00274837,.00037786,5.6243,72.8813,153.2581,114.2880,0,U,40367,999,4194,0,-.29E-5,0
MUOS-3,2015-002A,2026-06-11T21:43:38.060832,1.00271832,.00516867,4.5111,43.5036,178.2967,348.9176,0,U,40374,999,4153,0,-.115E-5,0
INMARSAT 5-F2,2015-005A,2026-06-11T19:49:41.937312,1.00271037,.00005021,0.0181,354.1197,264.1181,244.3558,0,U,40384,999,4094,0,-.269E-5,0
ABS-3A,2015-010A,2026-06-11T18:21:46.643616,1.00270007,.00017868,0.0355,51.7308,345.0700,135.7150,0,U,40424,999,4132,0,0,0
EUTELSAT 115 WEST B,2015-010B,2026-06-11T14:24:39.795840,1.00273438,.00001884,0.0134,151.4584,279.1973,290.5621,0,U,40425,999,4133,0,-.9E-7,0
EXPRESS-AM7,2015-012A,2026-06-11T22:18:14.805792,1.00270424,.00029093,0.0191,327.8548,115.5035,191.4898,0,U,40505,999,4095,0,.167E-5,0
BEIDOU-3S IGSO-1S,2015-019A,2026-06-11T20:31:05.982240,1.00251573,.0038799,49.2064,295.5276,190.7165,173.6268,0,U,40549,999,4102,0,-.18E-5,0
THOR 7,2015-022A,2026-06-11T16:39:47.543328,1.00271393,.00024631,0.0408,130.0799,312.0007,67.2480,0,U,40613,999,4076,0,.8E-7,0
TURKMENALEM52E/MONACOSAT,2015-023A,2026-06-11T22:18:39.720960,1.00269237,.00027401,0.0204,55.7377,18.4471,212.7815,0,U,40617,999,4079,0,.12E-5,0
DIRECTV 15,2015-026A,2026-06-11T16:10:42.830976,1.00269288,.00006347,0.0180,10.3830,273.8943,115.5426,0,U,40663,999,4040,0,-.86E-6,0
SKY MEXICO-1,2015-026B,2026-06-11T12:52:17.814720,1.00270302,.0002093,0.0185,327.3821,135.5940,271.1791,0,U,40664,999,4039,0,-.217E-5,0
METEOSAT-11 (MSG-4),2015-034A,2026-06-11T21:50:44.879424,1.00278699,.00017511,3.1888,71.1408,7.8685,158.4410,0,U,40732,999,716,0,.79E-6,0
STAR ONE C4,2015-034B,2026-06-11T21:28:02.330688,1.00271479,.00021073,0.0280,23.7257,46.3334,82.1966,0,U,40733,999,3996,0,-.249E-5,0
WGS F7 (USA 263),2015-036A,2026-06-11T20:55:18.660864,1.00269884,.00005057,0.0024,358.8579,317.0144,73.1525,0,U,40746,999,3981,0,.33E-6,0
INTELSAT 34 (IS-34),2015-039A,2026-06-11T21:32:09.436416,1.00269455,.00003514,0.0096,324.4083,357.3642,206.0131,0,U,40874,999,3958,0,-.269E-5,0
EUTELSAT 8 WEST B,2015-039B,2026-06-11T21:45:45.358272,1.00271620,.00039093,0.0641,3.7408,73.8480,141.0945,0,U,40875,999,3960,0,-.49E-6,0
GSAT-6,2015-041A,2026-06-11T21:40:08.264352,1.00270988,.00034367,1.9064,82.6598,353.6439,231.4894,0,U,40880,999,3954,0,-.145E-5,0
INMARSAT 5-F3,2015-042A,2026-06-11T19:13:58.153728,1.00268133,.00002117,0.0190,7.4991,320.9080,39.8665,0,U,40882,999,3951,0,.66E-6,0
MUOS-4,2015-044A,2026-06-11T20:06:18.855936,1.00271294,.00591986,4.3194,42.2047,4.8447,229.7351,0,U,40887,999,3950,0,-.8E-6,0
TJS-1,2015-046A,2026-06-11T22:32:10.241088,1.00271523,.00055474,0.3092,84.9560,357.0428,311.3847,0,U,40892,999,3951,0,-.14E-5,0
BEIDOU-3S IGSO-2S,2015-053A,2026-06-11T23:00:41.712768,1.00260751,.00655982,49.2299,258.8465,191.9937,250.0772,0,U,40938,999,3930,0,-.146E-5,0
SKY MUSTER 1 (NBN1A),2015-054A,2026-06-10T12:14:47.243328,1.00268853,.00017052,0.0228,338.0809,111.1974,133.5327,0,U,40940,999,3919,0,0,0
ARSAT 2,2015-054B,2026-06-11T21:24:55.131264,1.00272106,.0002054,0.0211,35.2495,31.2098,73.9986,0,U,40941,999,3925,0,-.209E-5,0
MORELOS 3,2015-056A,2026-06-11T16:07:50.607264,1.00272261,.0001403,3.1825,14.9332,359.1423,14.7880,0,U,40946,999,3923,0,-.29E-6,0
TURKSAT 4B,2015-060A,2026-06-11T21:15:28.793952,1.00269638,.00022678,0.0230,60.9779,5.0972,203.0061,0,U,40984,999,3904,0,.131E-5,0
