EUTELSAT 53A            
1 40277U 14064A   26162.91881399  .00000114  00000+0  00000+0 0  9994
2 40277   0.0153 304.4688 0000899 246.8476  92.7252  1.00271410 41511
GSAT-16                 
1 40332U 14078A   26162.91924733  .00000101  00000+0  00000+0 0  9997
2 40332   0.0756  91.5760 0007590 354.5833 200.1116  1.00272796 42058
DIRECTV 14              
1 40333U 14078B   26162.88866475 -.00000109  00000+0  00000+0 0  9991
2 40333   0.0104 344.5357 0000381 323.3247 173.0530  1.00271223 41997
YAMAL 401               
1 40345U 14082A   26162.35585656  .00000000  00000+0  00000+0 0  9999
2 40345   0.0165 302.1572 0000623 218.8270 316.7771  1.00269130 41862
ASTRA 2G                
1 40364U 14089A   26162.95204730  .00000166  00000+0  00000+0 0  9997
2 40364   0.0547  23.8245 0004720  38.0527 209.3388  1.00272290 41918
FENGYUN 2G              
1 40367U 14090A   26162.94580934 -.00000290  00000+0  00000+0 0  9993
2 40367   5.6243  72.8813 0003778 153.2581 114.2880  1.00274837 41945
MUOS-3                  
1 40374U 15002A   26162.90530163 -.00000115  00000+0  00000+0 0  9996
2 40374   4.5111  43.5036 0051686 178.2967 348.9176  1.00271832 41534
INMARSAT 5-F2           
1 40384U 15005A   26162.82617983 -.00000269  00000+0  00000+0 0  9997
2 40384   0.0181 354.1197 0000502 264.1181 244.3558  1.00271037 40940
ABS-3A                  
1 40424U 15010A   26162.76512319  .00000000  00000+0  00000+0 0  9990
2 40424   0.0355  51.7308 0001786 345.0700 135.7150  1.00270007 41323
EUTELSAT 115 WEST B     
1 40425U 15010B   26162.60046060 -.00000009  00000+0  00000+0 0  9999
2 40425   0.0134 151.4584 0000188 279.1973 290.5621  1.00273438 41332
EXPRESS-AM7             
1 40505U 15012A   26162.92933803  .00000167  00000+0  00000+0 0  9999
2 40505   0.0191 327.8548 0002909 115.5035 191.4898  1.00270424 40952
BEIDOU-3S IGSO-1S       
1 40549U 15019A   26162.85493035 -.00000180  00000+0  00000+0 0  9990
2 40549  49.2064 295.5276 0038799 190.7165 173.6268  1.00251573 41024
THOR 7                  
1 40613U 15022A   26162.69430027  .00000008  00000+0  00000+0 0  9998
2 40613   0.0408 130.0799 0002463 312.0007  67.2480  1.00271393 40765
TURKMENALEM52E/MONACOSAT
1 40617U 15023A   26162.92962640  .00000120  00000+0  00000+0 0  9995
2 40617   0.0204  55.7377 0002740  18.4471 212.7815  1.00269237 40794
DIRECTV 15              
1 40663U 15026A   26162.67410684 -.00000086  00000+0  00000+0 0  9999
2 40663   0.0180  10.3830 0000634 273.8943 115.5426  1.00269288 40402
SKY MEXICO-1            
1 40664U 15026B   26162.53631730 -.00000217  00000+0  00000+0 0  9998
2 40664   0.0185 327.3821 0002093 135.5940 271.1791  1.00270302 40392
METEOSAT-11 (MSG-4)     
1 40732U 15034A   26162.91024166  .00000079  00000+0  00000+0 0  9999
2 40732   3.1888  71.1408 0001751   7.8685 158.4410  1.00278699  7164
STAR ONE C4             
1 40733U 15034B   26162.89447142 -.00000249  00000+0  00000+0 0  9990
2 40733   0.0280  23.7257 0002107  46.3334  82.1966  1.00271479 39968
WGS F7 (USA 263)        
1 40746U 15036A   26162.87174376  .00000033  00000+0  00000+0 0  9990
2 40746   0.0024 358.8579 0000505 317.0144  73.1525  1.00269884 39816
INTELSAT 34 (IS-34)     
1 40874U 15039A   26162.89733144 -.00000269  00000+0  00000+0 0  9993
2 40874   0.0096 324.4083 0000351 357.3642 206.0131  1.00269455 39583
EUTELSAT 8 WEST B       
1 40875U 15039B   26162.90677498 -.00000049  00000+0  00000+0 0  9991
2 40875   0.0641   3.7408 0003909  73.8480 141.0945  1.00271620 39601
GSAT-6                  
1 40880U 15041A   26162.90287343 -.00000145  00000+0  00000+0 0  9993
2 40880   1.9064  82.6598 0003436 353.6439 231.4894  1.00270988 39546
INMARSAT 5-F3           
1 40882U 15042A   26162.80136752  .00000066  00000+0  00000+0 0  9993
2 40882   0.0190   7.4991 0000211 320.9080  39.8665  1.00268133 39519
MUOS-4                  
1 40887U 15044A   26162.83771824 -.00000080  00000+0  00000+0 0  9995
2 40887   4.3194  42.2047 0059198   4.8447 229.7351  1.00271294 39500
TJS-1                   
1 40892U 15046A   26162.93900742 -.00000140  00000+0  00000+0 0  9994
2 40892   0.3092  84.9560 0005547 357.0428 311.3847  1.00271523 39517
BEIDOU-3S IGSO-2S       
1 40938U 15053A   26162.95881612 -.00000146  00000+0  00000+0 0  9995
2 40938  49.2299 258.8465 0065598 191.9937 250.0772  1.00260751 39301
SKY MUSTER 1 (NBN1A)    
1 40940U 15054A   26161.51026902  .00000000  00000+0  00000+0 0  9991
2 40940   0.0228 338.0809 0001705 111.1974 133.5327  1.00268853 39198
ARSAT 2                 
1 40941U 15054B   26162.89230476 -.00000209  00000+0  00000+0 0  9999
2 40941   0.0211  35.2495 0002054  31.2098  73.9986  1.00272106 39256
MORELOS 3               
1 40946U 15056A   26162.67211351 -.00000029  00000+0  00000+0 0  9993
2 40946   3.1825  14.9332 0001403 359.1423  14.7880  1.00272261 39237
TURKSAT 4B              
1 40984U 15060A   26162.88574993  .00000131  00000+0  00000+0 0  9990
2 40984   0.0230  60.9779 0002267   5.0972 203.0061  1.00269638 39043
